0 BREEZE-M DEB
1 34242U 06006BH  13286.60996506  .00000330  00000-0  28133-2 0  3087
2 34242 053.4149 092.4453 5068542 217.9210 059.9668 05.00130847104941
0 BREEZE-M DEB
1 34242U 06006BH  13287.16618051  .00000543  00000-0  46617-2 0  3099
2 34242 053.4176 092.1080 5069575 218.1385 341.4221 05.00135025104977
0 BREEZE-M DEB
1 34242U 06006BH  13287.78937153  .00002947  00000-0  25439-1 0  3104
2 34242 053.4103 091.7503 5071936 218.3586 023.4734 05.00141064105002
0 BREEZE-M DEB
1 34242U 06006BH  13295.16846149  .00003113  00000-0  25479-1 0  3110
2 34242 053.4389 087.2201 5080321 221.3456 349.5376 05.00160218105377
0 BREEZE-M DEB
1 34242U 06006BH  13296.16572760  .00002604  00000-0  20863-1 0  3123
2 34242 053.4498 086.6217 5083111 221.7548 345.1306 05.00148566105427
